{"elements": [{"type": "node", "id": 1299582748, "lat": 26.1811683, "lon": 91.7499743, "tags": {"amenity": "bus_station", "bus": "yes", "name": "ASTC", "public_transport": "station"}}, {"type": "node", "id": 1698245439, "lat": 26.1858416, "lon": 91.7489072, "tags": {"bus": "yes", "highway": "bus_stop", "name": "Guwahati Station", "name:ar": "\u0645\u062d\u0637\u0629 \u063a\u0648\u0627\u0647\u0627\u062a\u064a", "public_transport": "platform"}}, {"type": "node", "id": 1698245597, "lat": 26.1879211, "lon": 91.7483183, "tags": {"bus": "yes", "highway": "bus_stop", "public_transport": "platform"}}, {"type": "node", "id": 1698245639, "lat": 26.1897882, "lon": 91.7479001, "tags": {"bus": "yes", "highway": "bus_stop", "public_transport": "platform"}}, {"type": "node", "id": 1698245645, "lat": 26.1883389, "lon": 91.7436136, "tags": {"highway": "bus_stop"}}, {"type": "node", "id": 1698266422, "lat": 26.1650799, "lon": 91.7072072, "tags": {"amenity": "bus_station", "name": "Kamakhya Mandir"}}, {"type": "node", "id": 1698296685, "lat": 26.1773109, "lon": 91.7348759, "tags": {"amenity": "bus_station"}}, {"type": "node", "id": 4584952294, "lat": 26.1865974, "lon": 91.7488603, "tags": {"bus": "yes", "highway": "bus_stop", "name": "Iitg busstop", "name:en": "IITG Bus Stop", "operator": "IIT", "public_transport": "platform"}}, {"type": "node", "id": 5207580623, "lat": 26.1576721, "lon": 91.6727336, "tags": {"highway": "bus_stop", "name": "Jalukbari"}}, {"type": "node", "id": 6317779486, "lat": 26.1858539, "lon": 91.7490569, "tags": {"bus": "yes", "highway": "bus_stop", "name": "Bus to Kamakhya temple (bottom of the hill)", "public_transport": "platform"}}, {"type": "node", "id": 11381058769, "lat": 26.1671209, "lon": 91.7664232, "tags": {"bus": "yes", "highway": "bus_stop", "name": "Bhangagarh Bus Stop", "operator": "Assam State Transport Corporation", "public_transport": "platform", "shelter": "yes"}}, {"type": "node", "id": 11395551269, "lat": 26.1734102, "lon": 91.7595108, "tags": {"highway": "bus_stop", "name": "Lachit Nagar Bus Stop"}}, {"type": "node", "id": 11395558669, "lat": 26.1694317, "lon": 91.7638691, "tags": {"bus": "yes", "departures_board": "no", "highway": "bus_stop", "name": "Bora Service", "operator": "Assam State Transport Corporation", "public_transport": "platform", "shelter": "yes"}}, {"type": "node", "id": 11766128828, "lat": 26.1840265, "lon": 91.7746099, "tags": {"highway": "bus_stop", "shelter": "yes"}}, {"type": "node", "id": 11766141527, "lat": 26.1850277, "lon": 91.7543245, "tags": {"highway": "bus_stop", "name": "Ambari"}}, {"type": "node", "id": 11766154865, "lat": 26.1836454, "lon": 91.7715875, "tags": {"highway": "bus_stop", "shelter": "yes"}}, {"type": "node", "id": 11766155159, "lat": 26.183368, "lon": 91.774067, "tags": {"highway": "bus_stop", "shelter": "no"}}, {"type": "node", "id": 11766156980, "lat": 26.1849481, "lon": 91.763327, "tags": {"highway": "bus_stop", "shelter": "yes"}}, {"type": "node", "id": 11766160757, "lat": 26.1806554, "lon": 91.7752655, "tags": {"highway": "bus_stop"}}, {"type": "node", "id": 11766163706, "lat": 26.1842823, "lon": 91.7671716, "tags": {"highway": "bus_stop", "shelter": "yes"}}, {"type": "node", "id": 11766165292, "lat": 26.1804411, "lon": 91.7461872, "tags": {"bus": "yes", "highway": "bus_stop", "name": "Paltan Bazar", "public_transport": "platform"}}, {"type": "node", "id": 11766165796, "lat": 26.1868403, "lon": 91.7521398, "tags": {"highway": "bus_stop"}}, {"type": "node", "id": 11768802333, "lat": 26.1792272, "lon": 91.7515495, "tags": {"bus": "yes", "highway": "bus_stop", "name": "Nepali Mandir, Paltan Bazaar", "public_transport": "platform"}}, {"type": "node", "id": 11770599645, "lat": 26.1801436, "lon": 91.746065, "tags": {"highway": "bus_stop"}}, {"type": "node", "id": 11770628970, "lat": 26.1783643, "lon": 91.734587, "tags": {"highway": "bus_stop"}}, {"type": "node", "id": 11770628971, "lat": 26.1693642, "lon": 91.72242, "tags": {"bus": "yes", "highway": "bus_stop", "name": "Bhootnath Bus Stop", "public_transport": "platform"}}, {"type": "node", "id": 11770642840, "lat": 26.1899101, "lon": 91.7477234, "tags": {"highway": "bus_stop"}}, {"type": "node", "id": 11770643880, "lat": 26.1620879, "lon": 91.7133926, "tags": {"highway": "bus_stop"}}, {"type": "node", "id": 11931245411, "lat": 26.157917, "lon": 91.6746119, "tags": {"bus": "yes", "highway": "bus_stop", "name": "City Bus Stand, Jalukbari, Ghy-14", "public_transport": "platform"}}, {"type": "node", "id": 11932516745, "lat": 26.1587686, "lon": 91.6862799, "tags": {"bus": "yes", "highway": "bus_stop", "name": "Adabari Tinali Bus Stop", "public_transport": "platform"}}, {"type": "node", "id": 11932517370, "lat": 26.1585417, "lon": 91.6835126, "tags": {"bus": "yes", "highway": "bus_stop", "name": "Adabari Bus Stop", "public_transport": "platform"}}, {"type": "node", "id": 11933322512, "lat": 26.1692742, "lon": 91.7223733, "tags": {"bus": "yes", "highway": "bus_stop", "name": "Bootnath Bus Stop", "public_transport": "platform"}}, {"type": "node", "id": 11933530902, "lat": 26.1772201, "lon": 91.7543947, "tags": {"bus": "yes", "highway": "bus_stop", "name": "Manipuri Basti", "public_transport": "platform"}}, {"type": "node", "id": 11942696495, "lat": 26.1773515, "lon": 91.7537315, "tags": {"bus": "yes", "highway": "bus_stop", "name": "Ulubari", "public_transport": "platform"}}, {"type": "node", "id": 12027949957, "lat": 26.1675265, "lon": 91.7656453, "tags": {"bus": "yes", "highway": "bus_stop", "name": "Bhangagarh Bus Stop", "operator": "Assam State Transport Corporation", "public_transport": "platform", "shelter": "yes"}}, {"type": "node", "id": 12350937202, "lat": 26.1786236, "lon": 91.7502746, "tags": {"bus": "yes", "highway": "bus_stop", "public_transport": "platform"}}, {"type": "node", "id": 12595861291, "lat": 26.1769795, "lon": 91.7568098, "tags": {"bus": "yes", "highway": "bus_stop", "name": "the legal stop", "public_transport": "platform"}}], "route_member_node_ids": [1299582748, 1698245439, 1698245597, 1698245639, 1698245645, 1698266422, 1698296685, 4584952294, 5207580623, 6317779486, 11381058769, 11395551269, 11395558669, 11766128828, 11766141527, 11766154865, 11766155159, 11766156980, 11766160757, 11766163706, 11766165292, 11766165796, 11768802333, 11770599645, 11770628970, 11770628971, 11770642840, 11770643880, 11931245411, 11932516745, 11932517370, 11933322512, 11933530902, 11942696495, 12027949957, 12350937202, 12595861291]}